CCSDS_OMM_VERS = 2.0
CREATION_DATE  = 
ORIGINATOR     = 

OBJECT_NAME    = STARLINK-36699
OBJECT_ID      = 2026-022E
CENTER_NAME    = EARTH
REF_FRAME      = TEME
TIME_SYSTEM    = UTC
MEAN_ELEMENT_THEORY = SGP/SGP4

EPOCH          = 2026-02-15T04:00:01.999584
MEAN_MOTION    = 15.78004110
ECCENTRICITY   = .0001277
INCLINATION    = 97.2821
RA_OF_ASC_NODE = 79.0297
ARG_OF_PERICENTER = 81.1487
MEAN_ANOMALY   = 258.7839

EPHEMERIS_TYPE = 0
CLASSIFICATION_TYPE = U
NORAD_CAT_ID   = 67652
ELEMENT_SET_NO = 999
REV_AT_EPOCH   = 327
BSTAR          = -.13494E-1
MEAN_MOTION_DOT = -.1975054E-1
MEAN_MOTION_DDOT = 0

CCSDS_OMM_VERS = 2.0
CREATION_DATE  = 
ORIGINATOR     = 

OBJECT_NAME    = STARLINK-36694
OBJECT_ID      = 2026-022F
CENTER_NAME    = EARTH
REF_FRAME      = TEME
TIME_SYSTEM    = UTC
MEAN_ELEMENT_THEORY = SGP/SGP4

EPOCH          = 2026-02-15T04:00:01.999584
MEAN_MOTION    = 15.79133621
ECCENTRICITY   = .0001502
INCLINATION    = 97.2827
RA_OF_ASC_NODE = 79.0342
ARG_OF_PERICENTER = 98.8472
MEAN_ANOMALY   = 249.8642

EPHEMERIS_TYPE = 0
CLASSIFICATION_TYPE = U
NORAD_CAT_ID   = 67653
ELEMENT_SET_NO = 999
REV_AT_EPOCH   = 327
BSTAR          = -.12851E-1
MEAN_MOTION_DOT = -.1979287E-1
MEAN_MOTION_DDOT = 0

CCSDS_OMM_VERS = 2.0
CREATION_DATE  = 
ORIGINATOR     = 

OBJECT_NAME    = STARLINK-36620
OBJECT_ID      = 2026-022G
CENTER_NAME    = EARTH
REF_FRAME      = TEME
TIME_SYSTEM    = UTC
MEAN_ELEMENT_THEORY = SGP/SGP4

EPOCH          = 2026-02-15T04:00:01.999584
MEAN_MOTION    = 15.78357762
ECCENTRICITY   = .000132
INCLINATION    = 97.2822
RA_OF_ASC_NODE = 79.0352
ARG_OF_PERICENTER = 68.2367
MEAN_ANOMALY   = 284.8064

EPHEMERIS_TYPE = 0
CLASSIFICATION_TYPE = U
NORAD_CAT_ID   = 67654
ELEMENT_SET_NO = 999
REV_AT_EPOCH   = 327
BSTAR          = -.13316E-1
MEAN_MOTION_DOT = -.1979658E-1
MEAN_MOTION_DDOT = 0

CCSDS_OMM_VERS = 2.0
CREATION_DATE  = 
ORIGINATOR     = 

OBJECT_NAME    = STARLINK-36720
OBJECT_ID      = 2026-022H
CENTER_NAME    = EARTH
REF_FRAME      = TEME
TIME_SYSTEM    = UTC
MEAN_ELEMENT_THEORY = SGP/SGP4

EPOCH          = 2026-02-15T04:00:01.999584
MEAN_MOTION    = 15.79031373
ECCENTRICITY   = .0001243
INCLINATION    = 97.2829
RA_OF_ASC_NODE = 79.0391
ARG_OF_PERICENTER = 77.7085
MEAN_ANOMALY   = 283.3478

EPHEMERIS_TYPE = 0
CLASSIFICATION_TYPE = U
NORAD_CAT_ID   = 67655
ELEMENT_SET_NO = 999
REV_AT_EPOCH   = 327
BSTAR          = -.12938E-1
MEAN_MOTION_DOT = -.1982638E-1
MEAN_MOTION_DDOT = 0

CCSDS_OMM_VERS = 2.0
CREATION_DATE  = 
ORIGINATOR     = 

OBJECT_NAME    = STARLINK-36688
OBJECT_ID      = 2026-022J
CENTER_NAME    = EARTH
REF_FRAME      = TEME
TIME_SYSTEM    = UTC
MEAN_ELEMENT_THEORY = SGP/SGP4

EPOCH          = 2026-02-15T04:00:01.999584
MEAN_MOTION    = 15.78840767
ECCENTRICITY   = .0001802
INCLINATION    = 97.2829
RA_OF_ASC_NODE = 79.0407
ARG_OF_PERICENTER = 77.3641
MEAN_ANOMALY   = 288.3091

EPHEMERIS_TYPE = 0
CLASSIFICATION_TYPE = U
NORAD_CAT_ID   = 67656
ELEMENT_SET_NO = 999
REV_AT_EPOCH   = 327
BSTAR          = -.13103E-1
MEAN_MOTION_DOT = -.1990032E-1
MEAN_MOTION_DDOT = 0

CCSDS_OMM_VERS = 2.0
CREATION_DATE  = 
ORIGINATOR     = 

OBJECT_NAME    = STARLINK-36706
OBJECT_ID      = 2026-022K
CENTER_NAME    = EARTH
REF_FRAME      = TEME
TIME_SYSTEM    = UTC
MEAN_ELEMENT_THEORY = SGP/SGP4

EPOCH          = 2026-02-15T04:00:01.999584
MEAN_MOTION    = 15.79308948
ECCENTRICITY   = .0001217
INCLINATION    = 97.2810
RA_OF_ASC_NODE = 79.0427
ARG_OF_PERICENTER = 65.8904
MEAN_ANOMALY   = 306.2454

EPHEMERIS_TYPE = 0
CLASSIFICATION_TYPE = U
NORAD_CAT_ID   = 67657
ELEMENT_SET_NO = 999
REV_AT_EPOCH   = 324
BSTAR          = -.12828E-1
MEAN_MOTION_DOT = -.1989621E-1
MEAN_MOTION_DDOT = 0

CCSDS_OMM_VERS = 2.0
CREATION_DATE  = 
ORIGINATOR     = 

OBJECT_NAME    = STARLINK-36701
OBJECT_ID      = 2026-022L
CENTER_NAME    = EARTH
REF_FRAME      = TEME
TIME_SYSTEM    = UTC
MEAN_ELEMENT_THEORY = SGP/SGP4

EPOCH          = 2026-02-15T04:00:01.999584
MEAN_MOTION    = 15.79227439
ECCENTRICITY   = .0001542
INCLINATION    = 97.2811
RA_OF_ASC_NODE = 79.0458
ARG_OF_PERICENTER = 73.7678
MEAN_ANOMALY   = 304.6517

EPHEMERIS_TYPE = 0
CLASSIFICATION_TYPE = U
NORAD_CAT_ID   = 67658
ELEMENT_SET_NO = 999
REV_AT_EPOCH   = 327
BSTAR          = -.12885E-1
MEAN_MOTION_DOT = -.1991132E-1
MEAN_MOTION_DDOT = 0

CCSDS_OMM_VERS = 2.0
CREATION_DATE  = 
ORIGINATOR     = 

OBJECT_NAME    = STARLINK-36642
OBJECT_ID      = 2026-022M
CENTER_NAME    = EARTH
REF_FRAME      = TEME
TIME_SYSTEM    = UTC
MEAN_ELEMENT_THEORY = SGP/SGP4

EPOCH          = 2026-02-15T04:00:01.999584
MEAN_MOTION    = 15.79523646
ECCENTRICITY   = .0001089
INCLINATION    = 97.2807
RA_OF_ASC_NODE = 79.0475
ARG_OF_PERICENTER = 79.5663
MEAN_ANOMALY   = 303.8449

EPHEMERIS_TYPE = 0
CLASSIFICATION_TYPE = U
NORAD_CAT_ID   = 67659
ELEMENT_SET_NO = 999
REV_AT_EPOCH   = 327
BSTAR          = -.12801E-1
MEAN_MOTION_DOT = -.200268E-1
MEAN_MOTION_DDOT = 0

CCSDS_OMM_VERS = 2.0
CREATION_DATE  = 
ORIGINATOR     = 

OBJECT_NAME    = STARLINK-36673
OBJECT_ID      = 2026-022N
CENTER_NAME    = EARTH
REF_FRAME      = TEME
TIME_SYSTEM    = UTC
MEAN_ELEMENT_THEORY = SGP/SGP4

EPOCH          = 2026-02-15T04:00:01.999584
MEAN_MOTION    = 15.79848822
ECCENTRICITY   = .0001216
INCLINATION    = 97.2806
RA_OF_ASC_NODE = 79.0491
ARG_OF_PERICENTER = 85.1661
MEAN_ANOMALY   = 305.0043

EPHEMERIS_TYPE = 0
CLASSIFICATION_TYPE = U
NORAD_CAT_ID   = 67660
ELEMENT_SET_NO = 999
REV_AT_EPOCH   = 327
BSTAR          = -.12601E-1
MEAN_MOTION_DOT = -.2001365E-1
MEAN_MOTION_DDOT = 0

CCSDS_OMM_VERS = 2.0
CREATION_DATE  = 
ORIGINATOR     = 

OBJECT_NAME    = STARLINK-36674
OBJECT_ID      = 2026-022P
CENTER_NAME    = EARTH
REF_FRAME      = TEME
TIME_SYSTEM    = UTC
MEAN_ELEMENT_THEORY = SGP/SGP4

EPOCH          = 2026-02-15T04:00:01.999584
MEAN_MOTION    = 15.80521261
ECCENTRICITY   = .0001462
INCLINATION    = 97.2820
RA_OF_ASC_NODE = 79.0523
ARG_OF_PERICENTER = 78.7234
MEAN_ANOMALY   = 316.5964

EPHEMERIS_TYPE = 0
CLASSIFICATION_TYPE = U
NORAD_CAT_ID   = 67661
ELEMENT_SET_NO = 999
REV_AT_EPOCH   = 327
BSTAR          = -.12182E-1
MEAN_MOTION_DOT = -.199668E-1
MEAN_MOTION_DDOT = 0

CCSDS_OMM_VERS = 2.0
CREATION_DATE  = 
ORIGINATOR     = 

OBJECT_NAME    = STARLINK-36700
OBJECT_ID      = 2026-022Q
CENTER_NAME    = EARTH
REF_FRAME      = TEME
TIME_SYSTEM    = UTC
MEAN_ELEMENT_THEORY = SGP/SGP4

EPOCH          = 2026-02-15T04:00:01.999584
MEAN_MOTION    = 15.80474386
ECCENTRICITY   = .0001349
INCLINATION    = 97.2801
RA_OF_ASC_NODE = 79.0569
ARG_OF_PERICENTER = 84.8558
MEAN_ANOMALY   = 322.7293

EPHEMERIS_TYPE = 0
CLASSIFICATION_TYPE = U
NORAD_CAT_ID   = 67662
ELEMENT_SET_NO = 999
REV_AT_EPOCH   = 327
BSTAR          = -.12311E-1
MEAN_MOTION_DOT = -.201103E-1
MEAN_MOTION_DDOT = 0

CCSDS_OMM_VERS = 2.0
CREATION_DATE  = 
ORIGINATOR     = 

OBJECT_NAME    = STARLINK-36675
OBJECT_ID      = 2026-022R
CENTER_NAME    = EARTH
REF_FRAME      = TEME
TIME_SYSTEM    = UTC
MEAN_ELEMENT_THEORY = SGP/SGP4

EPOCH          = 2026-02-15T04:00:01.999584
MEAN_MOTION    = 15.80084515
ECCENTRICITY   = .0001624
INCLINATION    = 97.2804
RA_OF_ASC_NODE = 79.0543
ARG_OF_PERICENTER = 69.5967
MEAN_ANOMALY   = 331.6712

EPHEMERIS_TYPE = 0
CLASSIFICATION_TYPE = U
NORAD_CAT_ID   = 67663
ELEMENT_SET_NO = 999
REV_AT_EPOCH   = 327
BSTAR          = -.12553E-1
MEAN_MOTION_DOT = -.2013943E-1
MEAN_MOTION_DDOT = 0

