STARLINK-36699          
1 67652U 26022E   26046.16668981 -.01975054  00000+0 -13494-1 0  9995
2 67652  97.2821  79.0297 0001277  81.1487 258.7839 15.78004110  3278
STARLINK-36694          
1 67653U 26022F   26046.16668981 -.01979287  00000+0 -12851-1 0  9994
2 67653  97.2827  79.0342 0001502  98.8472 249.8642 15.79133621  3270
STARLINK-36620          
1 67654U 26022G   26046.16668981 -.01979658  00000+0 -13316-1 0  9994
2 67654  97.2822  79.0352 0001320  68.2367 284.8064 15.78357762  3279
STARLINK-36720          
1 67655U 26022H   26046.16668981 -.01982638  00000+0 -12938-1 0  9996
2 67655  97.2829  79.0391 0001243  77.7085 283.3478 15.79031373  3277
STARLINK-36688          
1 67656U 26022J   26046.16668981 -.01990032  00000+0 -13103-1 0  9999
2 67656  97.2829  79.0407 0001802  77.3641 288.3091 15.78840767  3271
STARLINK-36706          
1 67657U 26022K   26046.16668981 -.01989621  00000+0 -12828-1 0  9995
2 67657  97.2810  79.0427 0001217  65.8904 306.2454 15.79308948  3249
STARLINK-36701          
1 67658U 26022L   26046.16668981 -.01991132  00000+0 -12885-1 0  9999
2 67658  97.2811  79.0458 0001542  73.7678 304.6517 15.79227439  3272
STARLINK-36642          
1 67659U 26022M   26046.16668981 -.02002680  00000+0 -12801-1 0  9990
2 67659  97.2807  79.0475 0001089  79.5663 303.8449 15.79523646  3275
STARLINK-36673          
1 67660U 26022N   26046.16668981 -.02001365  00000+0 -12601-1 0  9999
2 67660  97.2806  79.0491 0001216  85.1661 305.0043 15.79848822  3277
STARLINK-36674          
1 67661U 26022P   26046.16668981 -.01996680  00000+0 -12182-1 0  9996
2 67661  97.2820  79.0523 0001462  78.7234 316.5964 15.80521261  3273
STARLINK-36700          
1 67662U 26022Q   26046.16668981 -.02011030  00000+0 -12311-1 0  9999
2 67662  97.2801  79.0569 0001349  84.8558 322.7293 15.80474386  3273
STARLINK-36675          
1 67663U 26022R   26046.16668981 -.02013943  00000+0 -12553-1 0  9993
2 67663  97.2804  79.0543 0001624  69.5967 331.6712 15.80084515  3275
